OBJECT_NAME,OBJECT_ID,EPOCH,MEAN_MOTION,ECCENTRICITY,INCLINATION,RA_OF_ASC_NODE,ARG_OF_PERICENTER,MEAN_ANOMALY,EPHEMERIS_TYPE,CLASSIFICATION_TYPE,NORAD_CAT_ID,ELEMENT_SET_NO,REV_AT_EPOCH,BSTAR,MEAN_MOTION_DOT,MEAN_MOTION_DDOT
ALOS-2,2014-029A,2026-07-03T18:38:40.142400,14.79475407,.0001643,97.9231,281.7034,89.0013,271.1387,0,U,39766,999,65403,.20504E-3,.148E-4,0
KAZEOSAT 2,2014-033A,2026-07-04T22:41:47.461344,14.85490021,.0007,97.5396,24.6184,260.8396,99.2028,0,U,40010,999,65159,.41406517E-4,.307E-5,0
HODOYOSHI-4,2014-033B,2026-07-04T23:41:13.104672,14.88168807,.00221584,97.5452,9.9501,245.4923,114.3984,0,U,40011,999,65145,.166962E-3,.1493E-4,0
DEIMOS-2,2014-033D,2026-07-04T22:26:05.798976,14.93782137,.00011087,97.5799,59.7984,86.3131,273.8217,0,U,40013,999,64037,.64684137E-3,.6806E-4,0
HODOYOSHI-3,2014-033F,2026-07-04T21:38:07.989504,14.85424506,.00314631,97.6436,348.2308,297.4516,62.3502,0,U,40015,999,65025,.15330605E-3,.1279E-4,0
SPOT 7,2014-034A,2026-07-04T23:43:38.216928,14.60973523,.0001484,98.0616,248.0212,98.6532,261.4837,0,U,40053,999,63973,.67081922E-4,.283E-5,0
SKYSAT-B,2014-037D,2026-07-04T21:03:13.404672,14.88075391,.00047281,98.3847,145.8518,208.3182,151.7776,0,U,40072,999,64859,.19484651E-3,.173E-4,0
WORLDVIEW-3 (WV-3),2014-048A,2026-07-04T16:27:58.251168,14.85053181,.00004467,97.8561,260.2771,167.7129,192.4096,0,U,40115,999,64450,.14580163E-3,.1192E-4,0
GAOFEN-2,2014-049A,2026-07-04T22:43:01.176960,14.80919576,.0007457,98.0099,250.1363,164.7850,195.3588,0,U,40118,999,64186,.14101964E-3,.1037E-4,0
YAOGAN-21,2014-053A,2026-07-04T23:49:25.924224,15.26653721,.00088693,97.1460,225.4655,41.1415,319.0491,0,U,40143,999,65767,.51157533E-3,.13371E-3,0
YAOGAN-22,2014-063A,2026-07-04T16:15:29.932992,13.15531294,.00067016,100.7748,337.2427,147.2730,212.8798,0,U,40275,999,56211,.68408597E-4,-.21E-6,0
ASNARO,2014-070A,2026-07-04T22:32:06.959616,15.19710671,.00067563,97.3445,261.5744,115.1217,245.0720,0,U,40298,999,64670,.43252535E-3,.9181E-4,0
YAOGAN-24,2014-072A,2026-07-04T23:27:06.835680,14.76107978,.00137723,98.1518,323.4659,202.9287,157.1308,0,U,40310,999,62634,.94601509E-4,.601E-5,0
CBERS 4,2014-079A,2026-07-04T22:48:50.361696,14.35513481,.00012291,98.3518,242.2243,51.1906,308.9390,0,U,40336,999,60650,-.13521749E-4,-.81E-6,0
YAOGAN-26,2014-088A,2026-07-04T23:28:41.395296,15.48127458,.00035675,97.0645,185.7783,25.1947,334.9478,0,U,40362,999,64045,.95100478E-3,.50084E-3,0
SMAP,2015-003A,2026-07-04T14:01:10.675776,14.63382986,.00015051,98.1278,192.4323,97.7517,262.3856,0,U,40376,999,61016,.12392243E-3,.594E-5,0
KOMPSAT-3A,2015-014A,2026-07-04T22:40:47.440128,15.54947323,.00570632,97.6890,178.6167,111.5808,249.1539,0,U,40536,999,62457,.60908136E-3,.43875E-3,0
SENTINEL-2A,2015-028A,2026-07-04T23:26:46.523904,14.30819957,.00012295,98.5679,260.5760,96.7066,263.4257,0,U,40697,999,57627,.23709327E-4,.19E-6,0
GAOFEN-8,2015-030A,2026-07-04T22:46:20.112096,15.46646698,.00097472,97.6895,20.3921,126.9844,233.2299,0,U,40701,999,61419,.72057567E-3,.36021E-3,0
CARBONITE 1 (CBNT-1),2015-032D,2026-07-04T23:42:31.184352,14.83650337,.00131098,97.6517,3.3095,232.5880,127.4142,0,U,40718,999,59198,.7248259E-3,.5944E-4,0
YAOGAN-27,2015-040A,2026-07-04T23:16:02.297856,13.16069263,.00082401,100.1163,171.5811,168.2343,191.8964,0,U,40878,999,52000,-.13606522E-2,-.559E-5,0
GAOFEN-9 01,2015-047A,2026-07-04T22:39:19.943712,14.82920958,.0028863,97.6267,220.8314,82.4450,278.0042,0,U,40894,999,58282,.16570098E-3,.1303E-4,0
YAOGAN-28,2015-064A,2026-07-04T22:39:44.623008,15.27660082,.00118592,97.3101,323.8484,124.7516,235.4842,0,U,41026,999,59339,.38043434E-3,.10237E-3,0
YAOGAN-29,2015-069A,2026-07-04T23:44:35.602944,14.83101586,.00015431,98.0017,214.6497,28.8790,331.2509,0,U,41038,999,57326,.88258354E-4,.665E-5,0
KENT RIDGE 1,2015-077B,2026-07-04T23:23:58.829280,15.23240736,.00081627,14.9788,133.6854,130.6460,229.4573,0,U,41167,999,58381,.1801781E-3,.5168E-4,0
GAOFEN-4,2015-083A,2026-07-04T22:56:44.200896,1.00273108,.00040784,0.4009,83.8435,115.7683,173.2397,0,U,41194,999,3870,0,-.322E-5,0
JASON-3,2016-002A,2026-07-04T17:04:33.926592,12.87623491,.00082839,66.0418,88.9937,271.7724,88.2346,0,U,41240,999,48950,.20569676E-3,-.1E-6,0
SENTINEL-3A,2016-011A,2026-07-04T17:58:37.029216,14.26737941,.00014241,98.6242,252.8799,93.6283,266.5060,0,U,41335,999,54056,.88707544E-4,.171E-5,0
ZIYUAN 3-02 (ZY 3-02),2016-033A,2026-07-04T22:47:01.883904,15.21360703,.0013046,97.3826,261.3822,222.0513,137.9722,0,U,41556,999,56068,.40664762E-3,.9068E-4,0
CARTOSAT-2C,2016-040A,2026-07-04T20:15:15.062112,15.19202868,.00100845,97.4470,245.5784,76.0882,284.1474,0,U,41599,999,55639,.31822581E-3,.6639E-4,0
