ALOS-2                  
1 39766U 14029A   26184.77685350  .00001480  00000+0  20504-3 0  9995
2 39766  97.9231 281.7034 0001643  89.0013 271.1387 14.79475407654039
KAZEOSAT 2              
1 40010U 14033A   26185.94568821  .00000307  00000+0  41407-4 0  9990
2 40010  97.5396  24.6184 0007000 260.8396  99.2028 14.85490021651592
HODOYOSHI-4             
1 40011U 14033B   26185.98695723  .00001493  00000+0  16696-3 0  9995
2 40011  97.5452   9.9501 0022158 245.4923 114.3984 14.88168807651453
DEIMOS-2                
1 40013U 14033D   26185.93478934  .00006806  00000+0  64684-3 0  9998
2 40013  97.5799  59.7984 0001108  86.3131 273.8217 14.93782137640375
HODOYOSHI-3             
1 40015U 14033F   26185.90148136  .00001279  00000+0  15331-3 0  9999
2 40015  97.6436 348.2308 0031463 297.4516  62.3502 14.85424506650251
SPOT 7                  
1 40053U 14034A   26185.98863677  .00000283  00000+0  67082-4 0  9999
2 40053  98.0616 248.0212 0001484  98.6532 261.4837 14.60973523639732
SKYSAT-B                
1 40072U 14037D   26185.87723848  .00001730  00000+0  19485-3 0  9997
2 40072  98.3847 145.8518 0004728 208.3182 151.7776 14.88075391648593
WORLDVIEW-3 (WV-3)      
1 40115U 14048A   26185.68609087  .00001192  00000+0  14580-3 0  9997
2 40115  97.8561 260.2771 0000446 167.7129 192.4096 14.85053181644507
GAOFEN-2                
1 40118U 14049A   26185.94654140  .00001037  00000+0  14102-3 0  9998
2 40118  98.0099 250.1363 0007457 164.7850 195.3588 14.80919576641869
YAOGAN-21               
1 40143U 14053A   26185.99266116  .00013371  00000+0  51158-3 0  9994
2 40143  97.1460 225.4655 0008869  41.1415 319.0491 15.26653721657673
YAOGAN-22               
1 40275U 14063A   26185.67742978 -.00000021  00000+0  68409-4 0  9998
2 40275 100.7748 337.2427 0006701 147.2730 212.8798 13.15531294562119
ASNARO                  
1 40298U 14070A   26185.93896944  .00009181  00000+0  43253-3 0  9997
2 40298  97.3445 261.5744 0006756 115.1217 245.0720 15.19710671646709
YAOGAN-24               
1 40310U 14072A   26185.97716245  .00000601  00000+0  94602-4 0  9996
2 40310  98.1518 323.4659 0013772 202.9287 157.1308 14.76107978626340
CBERS 4                 
1 40336U 14079A   26185.95058289 -.00000081  00000+0 -13522-4 0  9992
2 40336  98.3518 242.2243 0001229  51.1906 308.9390 14.35513481606501
YAOGAN-26               
1 40362U 14088A   26185.97825689  .00050084  00000+0  95100-3 0  9996
2 40362  97.0645 185.7783 0003567  25.1947 334.9478 15.48127458640458
SMAP                    
1 40376U 15003A   26185.58415134  .00000594  00000+0  12392-3 0  9999
2 40376  98.1278 192.4323 0001505  97.7517 262.3856 14.63382986610164
KOMPSAT-3A              
1 40536U 15014A   26185.94499352  .00043875  00000+0  60908-3 0  9998
2 40536  97.6890 178.6167 0057063 111.5808 249.1539 15.54947323624570
SENTINEL-2A             
1 40697U 15028A   26185.97692736  .00000019  00000+0  23709-4 0  9997
2 40697  98.5679 260.5760 0001229  96.7066 263.4257 14.30819957576279
GAOFEN-8                
1 40701U 15030A   26185.94884389  .00036021  00000+0  72058-3 0  9992
2 40701  97.6895  20.3921 0009747 126.9844 233.2299 15.46646698614192
CARBONITE 1 (CBNT-1)    
1 40718U 15032D   26185.98786093  .00005944  00000+0  72483-3 0  9991
2 40718  97.6517   3.3095 0013109 232.5880 127.4142 14.83650337591982
YAOGAN-27               
1 40878U 15040A   26185.96947104 -.00000559  00000+0 -13607-2 0  9998
2 40878 100.1163 171.5811 0008240 168.2343 191.8964 13.16069263520008
GAOFEN-9 01             
1 40894U 15047A   26185.94398083  .00001303  00000+0  16570-3 0  9996
2 40894  97.6267 220.8314 0028863  82.4450 278.0042 14.82920958582820
YAOGAN-28               
1 41026U 15064A   26185.94426647  .00010237  00000+0  38043-3 0  9996
2 41026  97.3101 323.8484 0011859 124.7516 235.4842 15.27660082593392
YAOGAN-29               
1 41038U 15069A   26185.98930096  .00000665  00000+0  88258-4 0  9994
2 41038  98.0017 214.6497 0001543  28.8790 331.2509 14.83101586573266
KENT RIDGE 1            
1 41167U 15077B   26185.97498645  .00005168  00000+0  18018-3 0  9993
2 41167  14.9788 133.6854 0008162 130.6460 229.4573 15.23240736583815
GAOFEN-4                
1 41194U 15083A   26185.95606714 -.00000322  00000+0  00000+0 0  9992
2 41194   0.4009  83.8435 0004078 115.7683 173.2397  1.00273108 38707
JASON-3                 
1 41240U 16002A   26185.71150378 -.00000010  00000+0  20570-3 0  9992
2 41240  66.0418  88.9937 0008283 271.7724  88.2346 12.87623491489503
SENTINEL-3A             
1 41335U 16011A   26185.74903969  .00000171  00000+0  88708-4 0  9997
2 41335  98.6242 252.8799 0001424  93.6283 266.5060 14.26737941540562
ZIYUAN 3-02 (ZY 3-02)   
1 41556U 16033A   26185.94932736  .00009068  00000+0  40665-3 0  9995
2 41556  97.3826 261.3822 0013046 222.0513 137.9722 15.21360703560685
CARTOSAT-2C             
1 41599U 16040A   26185.84392433  .00006639  00000+0  31823-3 0  9990
2 41599  97.4470 245.5784 0010084  76.0882 284.1474 15.19202868556390
